NORAD_CAT_ID,OBJECT_NAME,OBJECT_TYPE,EPOCH,MEAN_MOTION,ECCENTRICITY,INCLINATION,RA_OF_ASC_NODE,ARG_OF_PERICENTER,MEAN_ANOMALY,BSTAR,MEAN_MOTION_DOT,MEAN_MOTION_DDOT,TLE_LINE0,TLE_LINE1,TLE_LINE2,SEMIMAJOR_AXIS,PERIOD,APOGEE,PERIGEE,DECAYED
52108.0,STARLINK-3698,PAYLOAD,2023-11-21 05:44:56,15.08843929,0.0001584,53.2175,247.5593,87.2372,272.8801,7.1756e-05,8.54e-06,0.0,0 STARLINK-3698,1 52108U 22029W   23325.23953780  .00000854  00000-0  71756-4 0  9990,2 52108  53.2175 247.5593 0001584  87.2372 272.8801 15.08843929 94058,6917.868,95.437,540.829,538.638,0.0
52108.0,STARLINK-3698,PAYLOAD,2023-11-22 04:00:19,15.08848323,0.0001674,53.2187,243.3937,67.1014,293.0155,6.7282e-05,7.83e-06,0.0,0 STARLINK-3698,1 52108U 22029W   23326.16689718  .00000783  00000-0  67282-4 0  9990,2 52108  53.2187 243.3937 0001674  67.1014 293.0155 15.08848323 94192,6917.855,95.437,540.878,538.562,0.0
52108.0,STARLINK-3698,PAYLOAD,2023-11-23 00:40:21,15.08840839,0.0001655,53.2177,239.5278,98.9755,261.1425,7.2025e-05,8.58e-06,0.0,0 STARLINK-3698,1 52108U 22029W   23327.02802170  .00000858  00000-0  72025-4 0  9999,2 52108  53.2177 239.5278 0001655  98.9755 261.1425 15.08840839 94324,6917.878,95.438,540.888,538.598,0.0
52108.0,STARLINK-3698,PAYLOAD,2023-11-23 21:20:22,15.08835908,0.000156,53.2166,235.6555,126.3046,233.809,6.0854e-05,6.81e-06,0.0,0 STARLINK-3698,1 52108U 22029W   23327.88914472  .00000681  00000-0  60854-4 0  9993,2 52108  53.2166 235.6555 0001560 126.3046 233.8090 15.08835908 94450,6917.893,95.438,540.837,538.679,0.0
52108.0,STARLINK-3698,PAYLOAD,2023-11-24 03:41:54,15.08839062,0.0001591,53.2165,234.4718,123.8381,236.2763,3.6849e-05,2.98e-06,0.0,0 STARLINK-3698,1 52108U 22029W   23328.15410373  .00000298  00000-0  36849-4 0  9996,2 52108  53.2165 234.4718 0001591 123.8381 236.2763 15.08839062 94498,6917.883,95.438,540.849,538.648,0.0
52108.0,STARLINK-3698,PAYLOAD,2023-11-24 21:11:09,15.08841041,0.0001749,53.2163,231.2002,132.971,227.1429,-3.0339e-05,-7.71e-06,0.0,0 STARLINK-3698,1 52108U 22029W   23328.88274583 -.00000771  00000-0 -30339-4 0  9993,2 52108  53.2163 231.2002 0001749 132.9710 227.1429 15.08841041 94600,6917.877,95.437,540.952,538.532,0.0
52108.0,STARLINK-3698,PAYLOAD,2023-11-25 03:32:42,15.08824551,0.000186,53.2161,230.0106,123.9458,236.1711,0.0006871,0.0001066,0.0,0 STARLINK-3698,1 52108U 22029W   23329.14771539  .00010660  00000-0  68710-3 0  9995,2 52108  53.2161 230.0106 0001860 123.9458 236.1711 15.08824551 94648,6917.928,95.439,541.079,538.506,0.0
52108.0,STARLINK-3698,PAYLOAD,2023-11-25 22:37:18,15.08862897,0.0001575,53.216,226.4442,123.6957,236.4186,0.00045923,7.033e-05,0.0,0 STARLINK-3698,1 52108U 22029W   23329.94257556  .00007033  00000-0  45923-3 0  9992,2 52108  53.2160 226.4442 0001575 123.6957 236.4186 15.08862897 94760,6917.81,95.436,540.765,538.586,0.0
52108.0,STARLINK-3698,PAYLOAD,2023-11-26 00:12:41,15.08869639,0.000162,53.2158,226.1465,131.0598,229.0534,0.00053446,8.235e-05,0.0,0 STARLINK-3698,1 52108U 22029W   23330.00881102  .00008235  00000-0  53446-3 0  9995,2 52108  53.2158 226.1465 0001620 131.0598 229.0534 15.08869639 94771,6917.79,95.436,540.775,538.534,0.0
52108.0,STARLINK-3698,PAYLOAD,2023-11-26 22:28:06,15.08832729,0.000144,53.2162,221.9826,106.5361,253.579,-0.00012023,-2.201e-05,0.0,0 STARLINK-3698,1 52108U 22029W   23330.93618872 -.00002201  00000-0 -12023-3 0  9994,2 52108  53.2162 221.9826 0001440 106.5361 253.5790 15.08832729 94917,6917.903,95.438,540.764,538.771,0.0
52108.0,STARLINK-3698,PAYLOAD,2023-11-27 22:18:53,15.08840018,0.0001372,53.2147,217.5277,91.3101,268.8048,-2.0608e-05,-6.16e-06,0.0,0 STARLINK-3698,1 52108U 22029W   23331.92979013 -.00000616  00000-0 -20608-4 0  9998,2 52108  53.2147 217.5277 0001372  91.3101 268.8048 15.08840018 95060,6917.88,95.438,540.694,538.796,0.0
52108.0,STARLINK-3698,PAYLOAD,2023-11-28 01:29:39,15.08845771,0.0001353,53.2148,216.9312,98.8164,261.2982,0.00022162,3.241e-05,0.0,0 STARLINK-3698,1 52108U 22029W   23332.06226812  .00003241  00000-0  22162-3 0  9997,2 52108  53.2148 216.9312 0001353  98.8164 261.2982 15.08845771 95081,6917.863,95.437,540.664,538.792,0.0
52108.0,STARLINK-3698,PAYLOAD,2023-11-28 20:34:17,15.08855602,0.0001224,53.2148,213.3601,95.4257,264.6875,0.00046364,7.102e-05,0.0,0 STARLINK-3698,1 52108U 22029W   23332.85714148  .00007102  00000-0  46364-3 0  9998,2 52108  53.2148 213.3601 0001224  95.4257 264.6875 15.08855602 95202,6917.833,95.437,540.544,538.851,0.0
52108.0,STARLINK-3698,PAYLOAD,2023-11-29 01:20:24,15.08891979,0.0001271,53.2147,212.469,77.76,282.3534,0.0010559,0.0001658,0.0,0 STARLINK-3698,1 52108U 22029W   23333.05584435  .00016580  00000-0  10559-2 0  9991,2 52108  53.2147 212.4690 0001271  77.7600 282.3534 15.08891979 95235,6917.722,95.434,540.466,538.707,0.0
52108.0,STARLINK-3698,PAYLOAD,2023-11-30 02:46:36,15.08838125,0.0001268,53.214,207.7153,64.2239,295.8884,-0.00012648,-2.3e-05,0.0,0 STARLINK-3698,1 52108U 22029W   23334.11570362 -.00002300  00000-0 -12648-3 0  9992,2 52108  53.2140 207.7153 0001268  64.2239 295.8884 15.08838125 95392,6917.886,95.438,540.628,538.874,0.0
52108.0,STARLINK-3698,PAYLOAD,2023-12-01 20:06:38,15.08853942,0.0001698,53.2141,199.9797,122.946,237.1696,0.00062587,9.691e-05,0.0,0 STARLINK-3698,1 52108U 22029W   23335.83794748  .00009691  00000-0  62587-3 0  9993,2 52108  53.2141 199.9797 0001698 122.9460 237.1696 15.08853942 95657,6917.838,95.437,540.877,538.528,0.0
52108.0,STARLINK-3698,PAYLOAD,2023-12-01 21:42:01,15.08860016,0.0001095,53.2138,199.6861,83.9092,276.2025,0.00080088,0.00012488,0.0,0 STARLINK-3698,1 52108U 22029W   23335.90418823  .00012488  00000-0  80088-3 0  9992,2 52108  53.2138 199.6861 0001095  83.9092 276.2025 15.08860016 95661,6917.819,95.436,540.442,538.927,0.0
52108.0,STARLINK-3698,PAYLOAD,2023-12-02 00:52:47,15.08864743,0.0001052,53.2137,199.0907,81.9643,278.1469,0.000849,0.00013259,0.0,0 STARLINK-3698,1 52108U 22029W   23336.03666541  .00013259  00000-0  84900-3 0  9993,2 52108  53.2137 199.0907 0001052  81.9643 278.1469 15.08864743 95684,6917.805,95.436,540.398,538.942,0.0
52108.0,STARLINK-3698,PAYLOAD,2023-12-02 19:57:25,15.08843154,0.0001603,53.2146,195.5112,123.2304,236.8842,7.7771e-05,9.5e-06,0.0,0 STARLINK-3698,1 52108U 22029W   23336.83154749  .00000950  00000-0  77771-4 0  9996,2 52108  53.2146 195.5112 0001603 123.2304 236.8842 15.08843154 95802,6917.871,95.437,540.845,538.627,0.0
52108.0,STARLINK-3698,PAYLOAD,2023-12-02 21:32:49,15.08839387,0.0001227,53.2146,195.2211,100.4636,259.6494,1.5891e-05,-3.5e-07,0.0,0 STARLINK-3698,1 52108U 22029W   23336.89778995 -.00000035  00000-0  15891-4 0  9997,2 52108  53.2146 195.2211 0001227 100.4636 259.6494 15.08839387 95816,6917.882,95.438,540.596,538.898,0.0
52108.0,STARLINK-3698,PAYLOAD,2023-12-03 00:43:35,15.08838321,0.0001253,53.2148,194.6272,103.1337,256.9795,-3.4094e-06,-3.42e-06,0.0,0 STARLINK-3698,1 52108U 22029W   23337.03027033 -.00000342  00000-0 -34094-5 0  9993,2 52108  53.2148 194.6272 0001253 103.1337 256.9795 15.08838321 95838,6917.886,95.438,540.617,538.884,0.0
52108.0,STARLINK-3698,PAYLOAD,2023-12-03 19:48:13,15.08829819,0.0001331,53.2147,191.057,100.692,259.4222,-0.00023995,-4.104e-05,0.0,0 STARLINK-3698,1 52108U 22029W   23337.82516021 -.00004104  00000-0 -23995-3 0  9996,2 52108  53.2147 191.0570 0001331 100.6920 259.4222 15.08829819 95954,6917.912,95.438,540.697,538.856,0.0
52108.0,STARLINK-3698,PAYLOAD,2023-12-03 21:23:37,15.08833422,0.000137,53.2157,190.7596,109.1804,250.9336,-0.00015654,-2.778e-05,0.0,0 STARLINK-3698,1 52108U 22029W   23337.89140514 -.00002778  00000-0 -15654-3 0  9991,2 52108  53.2157 190.7596 0001370 109.1804 250.9336 15.08833422 95965,6917.9,95.438,540.713,538.818,0.0
52108.0,STARLINK-3698,PAYLOAD,2023-12-04 22:49:47,15.0882918,0.0001402,53.2158,186.0006,109.3443,250.7701,0.00011261,1.504e-05,0.0,0 STARLINK-3698,1 52108U 22029W   23338.95124691  .00001504  00000-0  11261-3 0  9991,2 52108  53.2158 186.0006 0001402 109.3443 250.7701 15.08829180 96126,6917.913,95.438,540.748,538.809,0.0
52108.0,STARLINK-3698,PAYLOAD,2023-12-05 22:40:34,15.08840747,0.0001303,53.2158,181.5392,111.3021,248.811,0.00021041,3.062e-05,0.0,0 STARLINK-3698,1 52108U 22029W   23339.94484035  .00003062  00000-0  21041-3 0  9990,2 52108  53.2158 181.5392 0001303 111.3021 248.8110 15.08840747 96279,6917.878,95.438,540.645,538.842,0.0
52108.0,STARLINK-3698,PAYLOAD,2023-12-06 12:59:02,15.08839101,0.000131,53.2156,178.8651,111.864,248.2492,4.6752e-05,4.56e-06,0.0,0 STARLINK-3698,1 52108U 22029W   23340.54100222  .00000456  00000-0  46752-4 0  9992,2 52108  53.2156 178.8651 0001310 111.8640 248.2492 15.08839101 96363,6917.883,95.438,540.654,538.842,0.0
52108.0,STARLINK-3698,PAYLOAD,2023-12-07 12:49:49,15.08841459,0.0001356,53.2156,174.4044,109.9248,250.189,4.5163e-05,4.31e-06,0.0,0 STARLINK-3698,1 52108U 22029W   23341.53460039  .00000431  00000-0  45163-4 0  9995,2 52108  53.2156 174.4044 0001356 109.9248 250.1890 15.08841459 96513,6917.876,95.437,540.679,538.803,0.0
52108.0,STARLINK-3698,PAYLOAD,2023-12-09 12:31:23,15.08842837,0.0001327,53.2153,165.4849,114.7436,245.3694,4.483e-05,4.26e-06,0.0,0 STARLINK-3698,1 52108U 22029W   23343.52179721  .00000426  00000-0  44830-4 0  9995,2 52108  53.2153 165.4849 0001327 114.7436 245.3694 15.08842837 96816,6917.872,95.437,540.655,538.819,0.0
52108.0,STARLINK-3698,PAYLOAD,2023-12-10 18:43:43,15.08835064,0.0001262,53.2158,159.8368,99.1686,260.9449,-4.4186e-05,-9.91e-06,0.0,0 STARLINK-3698,1 52108U 22029W   23344.78036399 -.00000991  00000-0 -44186-4 0  9990,2 52108  53.2158 159.8368 0001262  99.1686 260.9449 15.08835064 97002,6917.895,95.438,540.634,538.887,0.0
52108.0,STARLINK-3698,PAYLOAD,2023-12-11 18:34:30,15.08833037,0.0001333,53.2162,155.3772,100.8121,259.3021,3.5171e-05,2.72e-06,0.0,0 STARLINK-3698,1 52108U 22029W   23345.77396827  .00000272  00000-0  35171-4 0  9999,2 52108  53.2162 155.3772 0001333 100.8121 259.3021 15.08833037 97152,6917.902,95.438,540.689,538.845,0.0
